[{"OBJECT_NAME":"CONTINUUM-1","OBJECT_ID":"2023-001AN","EPOCH":"2026-03-09T23:17:35.458656","MEAN_MOTION":15.27981258,"ECCENTRICITY":0.00109493,"INCLINATION":97.3456,"RA_OF_ASC_NODE":133.3964,"ARG_OF_PERICENTER":60.1976,"MEAN_ANOMALY":300.0351,"EPHEMERIS_TYPE":0,"CLASSIFICATION_TYPE":"U","NORAD_CAT_ID":55045,"ELEMENT_SET_NO":999,"REV_AT_EPOCH":17709,"BSTAR":0.00052859897,"MEAN_MOTION_DOT":0.00014395,"MEAN_MOTION_DDOT":0},{"OBJECT_NAME":"STARLINK-31753","OBJECT_ID":"2024-071A","EPOCH":"2026-03-09T03:49:42.020832","MEAN_MOTION":15.27589882,"ECCENTRICITY":0.00022227,"INCLINATION":43.0044,"RA_OF_ASC_NODE":342.8115,"ARG_OF_PERICENTER":258.3159,"MEAN_ANOMALY":101.7443,"EPHEMERIS_TYPE":0,"CLASSIFICATION_TYPE":"U","NORAD_CAT_ID":59484,"ELEMENT_SET_NO":999,"REV_AT_EPOCH":10812,"BSTAR":-4.5806096e-5,"MEAN_MOTION_DOT":-1.523e-5,"MEAN_MOTION_DDOT":0}]
